{"address": "3113 Mission College Bldg 5 Santa Clara, CA 95054", "city": "Santa Clara", "state": "CA", "zip": "95054", "loc":{"type":"Point","coordinates":[-121.983468,37.389151]}}
{"address": "3700 Thomas Road Santa Clara, CA 95054", "city": "Santa Clara", "state": "CA", "zip": "95054", "loc":{"type":"Point","coordinates":[-121.960775,37.386286]}}
{"address": "3555 Monroe Street 65 Santa Clara, CA 95051", "city": "Santa Clara", "state": "CA", "zip": "95051", "loc":{"type":"Point","coordinates":[-121.992586,37.367621]}}
{"address": "3970 Rivermark Plaza Santa Clara, CA 95054", "city": "Santa Clara", "state": "CA", "zip": "95054", "loc":{"type":"Point","coordinates":[-121.947658,37.394812]}}
{"address": "2370 El Camino Real Santa Clara, CA 95050", "city": "Santa Clara", "state": "CA", "zip": "95050", "loc":{"type":"Point","coordinates":[-121.967819,37.351751]}}
{"address": "3605 El Camino Real Santa Clara, CA 95051", "city": "Santa Clara", "state": "CA", "zip": "95051", "loc":{"type":"Point","coordinates":[-121.997324,37.352975]}}
{"address": "2004 El Camino Real Santa Clara, CA 95050", "city": "Santa Clara", "state": "CA", "zip": "95050", "loc":{"type":"Point","coordinates":[-121.960438,37.349815]}}
{"address": "55 River Oaks Place 40 San Jose, CA 95134", "city": "San Jose", "state": "CA", "zip": "95134", "loc":{"type":"Point","coordinates":[-121.940882,37.402149]}}
{"address": "1003 E. El Camino Real Sunnyvale, CA 94087", "city": "Sunnyvale", "state": "CA", "zip": "94087", "loc":{"type":"Point","coordinates":[-122.007799,37.352617]}}
{"address":"2077 Airport Blvd Terminal A Post Security San Jose, CA 95131","city":"San Jose","state":"CA","zip":95131,"loc":{"type":"Point","coordinates":[-121.929231,37.369213]}}
